start=new Date('2022-12-01T00:00:00.000Z').valueOf();
sats=[{"APOAPSIS":"548.455","SEMIMAJOR_AXIS":"6925.352","MEAN_MOTION_DDOT":"0.0000000000000","EPOCH":"2022-11-30T08:11:40.686432","CLASSIFICATION_TYPE":"U","OBJECT_TYPE":"PAYLOAD","REF_FRAME":"TEME","ELEMENT_SET_NO":"999","NORAD_CAT_ID":"48389","OBJECT_NAME":"STARLINK-1904","INCLINATION":"53.0544","OBJECT_ID":"2021-038AN","COUNTRY_CODE":"US","RA_OF_ASC_NODE":"307.7486","TIME_SYSTEM":"UTC","CENTER_NAME":"EARTH","REV_AT_EPOCH":"8713","PERIOD":"95.592","MEAN_ANOMALY":"301.4746","EPHEMERIS_TYPE":"0","MEAN_ELEMENT_THEORY":"SGP4","TLE_LINE2":"2 48389  53.0544 307.7486 0001787  58.6418 301.4746 15.06398855 87139","MEAN_MOTION_DOT":"0.00000555","BSTAR":"0.00005615000000","ARG_OF_PERICENTER":"58.6418","SITE":"AFETR","ECCENTRICITY":"0.00017870","LAUNCH_DATE":"2021-05-04","DECAY_DATE":null,"PERIAPSIS":"545.980","MEAN_MOTION":"15.06398855","TLE_LINE1":"1 48389U 21038AN  22334.34144313  .00000555  00000-0  56150-4 0  9999","GP_ID":"219174179","RCS_SIZE":"LARGE","FILE":"3675646"},{"CLASSIFICATION_TYPE":"U","NORAD_CAT_ID":"48390","ELEMENT_SET_NO":"999","OBJECT_TYPE":"PAYLOAD","REF_FRAME":"TEME","SEMIMAJOR_AXIS":"6925.410","MEAN_MOTION_DDOT":"0.0000000000000","APOAPSIS":"548.661","EPOCH":"2022-11-30T08:07:45.686208","CENTER_NAME":"EARTH","RA_OF_ASC_NODE":"307.7674","TIME_SYSTEM":"UTC","REV_AT_EPOCH":"8835","PERIOD":"95.593","MEAN_ANOMALY":"314.3358","OBJECT_NAME":"STARLINK-2586","INCLINATION":"53.0543","COUNTRY_CODE":"US","OBJECT_ID":"2021-038AP","ECCENTRICITY":"0.00020020","SITE":"AFETR","DECAY_DATE":null,"LAUNCH_DATE":"2021-05-04","MEAN_ELEMENT_THEORY":"SGP4","EPHEMERIS_TYPE":"0","MEAN_MOTION_DOT":"-0.00002011","ARG_OF_PERICENTER":"45.7795","BSTAR":"-0.00011617000000","TLE_LINE2":"2 48390  53.0543 307.7674 0002002  45.7795 314.3358 15.06379947 88353","TLE_LINE1":"1 48390U 21038AP  22334.33872322 -.00002011  00000-0 -11617-3 0  9997","GP_ID":"219174927","FILE":"3675646","RCS_SIZE":"LARGE","PERIAPSIS":"545.889","MEAN_MOTION":"15.06379947"},{"OBJECT_NAME":"STARLINK-2607","OBJECT_ID":"2021-038AQ","COUNTRY_CODE":"US","INCLINATION":"53.0539","PERIOD":"95.592","REV_AT_EPOCH":"8840","CENTER_NAME":"EARTH","RA_OF_ASC_NODE":"306.2981","TIME_SYSTEM":"UTC","MEAN_ANOMALY":"308.2466","SEMIMAJOR_AXIS":"6925.346","MEAN_MOTION_DDOT":"0.0000000000000","APOAPSIS":"548.694","EPOCH":"2022-11-30T16:00:07.320096","CLASSIFICATION_TYPE":"U","ELEMENT_SET_NO":"999","NORAD_CAT_ID":"48391","OBJECT_TYPE":"PAYLOAD","REF_FRAME":"TEME","PERIAPSIS":"545.727","MEAN_MOTION":"15.06400908","TLE_LINE1":"1 48391U 21038AQ  22334.66675139  .00003007  00000-0  22072-3 0  9992","GP_ID":"219213984","RCS_SIZE":"LARGE","FILE":"3676429","MEAN_ELEMENT_THEORY":"SGP4","EPHEMERIS_TYPE":"0","MEAN_MOTION_DOT":"0.00003007","ARG_OF_PERICENTER":"51.8715","BSTAR":"0.00022072000000","TLE_LINE2":"2 48391  53.0539 306.2981 0002142  51.8715 308.2466 15.06400908 88409","ECCENTRICITY":"0.00021420","SITE":"AFETR","DECAY_DATE":null,"LAUNCH_DATE":"2021-05-04"},{"INCLINATION":"53.0539","OBJECT_ID":"2021-038AR","COUNTRY_CODE":"US","OBJECT_NAME":"STARLINK-2605","MEAN_ANOMALY":"273.5528","TIME_SYSTEM":"UTC","RA_OF_ASC_NODE":"306.3037","CENTER_NAME":"EARTH","REV_AT_EPOCH":"8840","PERIOD":"95.592","EPOCH":"2022-11-30T15:54:49.329216","SEMIMAJOR_AXIS":"6925.353","MEAN_MOTION_DDOT":"0.0000000000000","APOAPSIS":"548.305","ELEMENT_SET_NO":"999","NORAD_CAT_ID":"48392","REF_FRAME":"TEME","OBJECT_TYPE":"PAYLOAD","CLASSIFICATION_TYPE":"U","MEAN_MOTION":"15.06398548","PERIAPSIS":"546.131","RCS_SIZE":"LARGE","FILE":"3676429","TLE_LINE1":"1 48392U 21038AR  22334.66307094  .00001170  00000-0  97408-4 0  9990","GP_ID":"219214734","MEAN_MOTION_DOT":"0.00001170","ARG_OF_PERICENTER":"86.5640","BSTAR":"0.00009740800000","TLE_LINE2":"2 48392  53.0539 306.3037 0001569  86.5640 273.5528 15.06398548 88406","MEAN_ELEMENT_THEORY":"SGP4","EPHEMERIS_TYPE":"0","DECAY_DATE":null,"LAUNCH_DATE":"2021-05-04","ECCENTRICITY":"0.00015690","SITE":"AFETR"},{"OBJECT_NAME":"STARLINK-2602","INCLINATION":"53.0556","COUNTRY_CODE":"US","OBJECT_ID":"2021-038AS","RA_OF_ASC_NODE":"306.3132","TIME_SYSTEM":"UTC","CENTER_NAME":"EARTH","REV_AT_EPOCH":"8840","PERIOD":"95.592","MEAN_ANOMALY":"303.8939","SEMIMAJOR_AXIS":"6925.345","MEAN_MOTION_DDOT":"0.0000000000000","APOAPSIS":"548.697","EPOCH":"2022-11-30T15:49:30.196128","CLASSIFICATION_TYPE":"U","ELEMENT_SET_NO":"999","NORAD_CAT_ID":"48393","OBJECT_TYPE":"PAYLOAD","REF_FRAME":"TEME","PERIAPSIS":"545.722","MEAN_MOTION":"15.06401188","TLE_LINE1":"1 48393U 21038AS  22334.65937727  .00000383  00000-0  44621-4 0  9996","GP_ID":"219215486","RCS_SIZE":"LARGE","FILE":"3676429","MEAN_ELEMENT_THEORY":"SGP4","EPHEMERIS_TYPE":"0","MEAN_MOTION_DOT":"0.00000383","ARG_OF_PERICENTER":"56.2254","BSTAR":"0.00004462100000","TLE_LINE2":"2 48393  53.0556 306.3132 0002148  56.2254 303.8939 15.06401188 88409","ECCENTRICITY":"0.00021480","SITE":"AFETR","DECAY_DATE":null,"LAUNCH_DATE":"2021-05-04"},{"EPOCH":"2022-11-30T18:55:17.169024","APOAPSIS":"548.495","SEMIMAJOR_AXIS":"6925.365","MEAN_MOTION_DDOT":"0.0000000000000","REF_FRAME":"TEME","OBJECT_TYPE":"PAYLOAD","NORAD_CAT_ID":"48394","ELEMENT_SET_NO":"999","CLASSIFICATION_TYPE":"U","OBJECT_ID":"2021-038AT","COUNTRY_CODE":"US","INCLINATION":"53.0537","OBJECT_NAME":"STARLINK-2573","MEAN_ANOMALY":"307.4441","REV_AT_EPOCH":"8842","PERIOD":"95.592","TIME_SYSTEM":"UTC","RA_OF_ASC_NODE":"305.7420","CENTER_NAME":"EARTH","TLE_LINE2":"2 48394  53.0537 305.7420 0001826  52.6714 307.4441 15.06394493 88425","ARG_OF_PERICENTER":"52.6714","MEAN_MOTION_DOT":"0.00001190","BSTAR":"0.00009881200000","EPHEMERIS_TYPE":"0","MEAN_ELEMENT_THEORY":"SGP4","LAUNCH_DATE":"2021-05-04","DECAY_DATE":null,"SITE":"AFETR","ECCENTRICITY":"0.00018260","MEAN_MOTION":"15.06394493","PERIAPSIS":"545.966","RCS_SIZE":"LARGE","FILE":"3676429","GP_ID":"219215725","TLE_LINE1":"1 48394U 21038AT  22334.78839316  .00001190  00000-0  98812-4 0  9994"},{"PERIOD":"95.593","REV_AT_EPOCH":"8839","RA_OF_ASC_NODE":"307.0642","CENTER_NAME":"EARTH","TIME_SYSTEM":"UTC","MEAN_ANOMALY":"295.0315","OBJECT_NAME":"STARLINK-2574","COUNTRY_CODE":"US","OBJECT_ID":"2021-038AU","INCLINATION":"53.0545","CLASSIFICATION_TYPE":"U","ELEMENT_SET_NO":"999","NORAD_CAT_ID":"48395","REF_FRAME":"TEME","OBJECT_TYPE":"PAYLOAD","MEAN_MOTION_DDOT":"0.0000000000000","SEMIMAJOR_AXIS":"6925.376","APOAPSIS":"548.469","EPOCH":"2022-11-30T15:12:28.081440","TLE_LINE1":"1 48395U 21038AU  22334.63365835  .00003311  00000-0  24116-3 0  9991","GP_ID":"219214485","RCS_SIZE":"LARGE","FILE":"3676429","PERIAPSIS":"546.013","MEAN_MOTION":"15.06391105","ECCENTRICITY":"0.00017730","SITE":"AFETR","DECAY_DATE":null,"LAUNCH_DATE":"2021-05-04","MEAN_ELEMENT_THEORY":"SGP4","EPHEMERIS_TYPE":"0","ARG_OF_PERICENTER":"65.0858","MEAN_MOTION_DOT":"0.00003311","BSTAR":"0.00024116000000","TLE_LINE2":"2 48395  53.0545 307.0642 0001773  65.0858 295.0315 15.06391105 88399"},{"OBJECT_NAME":"STARLINK-2575","INCLINATION":"53.0555","COUNTRY_CODE":"US","OBJECT_ID":"2021-038AV","CENTER_NAME":"EARTH","RA_OF_ASC_NODE":"306.3619","TIME_SYSTEM":"UTC","PERIOD":"95.592","REV_AT_EPOCH":"8840","MEAN_ANOMALY":"298.9741","MEAN_MOTION_DDOT":"0.0000000000000","SEMIMAJOR_AXIS":"6925.341","APOAPSIS":"548.444","EPOCH":"2022-11-30T15:38:53.287296","CLASSIFICATION_TYPE":"U","ELEMENT_SET_NO":"999","NORAD_CAT_ID":"48396","REF_FRAME":"TEME","OBJECT_TYPE":"PAYLOAD","PERIAPSIS":"545.967","MEAN_MOTION":"15.06402615","TLE_LINE1":"1 48396U 21038AV  22334.65200564  .00000435  00000-0  48120-4 0  9997","GP_ID":"219214234","FILE":"3676429","RCS_SIZE":"LARGE","MEAN_ELEMENT_THEORY":"SGP4","EPHEMERIS_TYPE":"0","MEAN_MOTION_DOT":"0.00000435","ARG_OF_PERICENTER":"61.1427","BSTAR":"0.00004812000000","TLE_LINE2":"2 48396  53.0555 306.3619 0001788  61.1427 298.9741 15.06402615 88408","ECCENTRICITY":"0.00017880","SITE":"AFETR","DECAY_DATE":null,"LAUNCH_DATE":"2021-05-04"},{"DECAY_DATE":null,"LAUNCH_DATE":"2021-05-04","ECCENTRICITY":"0.00018860","SITE":"AFETR","ARG_OF_PERICENTER":"61.9401","MEAN_MOTION_DOT":"0.00002177","BSTAR":"0.00016496000000","TLE_LINE2":"2 48397  53.0549 306.3753 0001886  61.9401 298.1779 15.06404808 88409","MEAN_ELEMENT_THEORY":"SGP4","EPHEMERIS_TYPE":"0","FILE":"3676429","RCS_SIZE":"LARGE","TLE_LINE1":"1 48397U 21038AW  22334.64832168  .00002177  00000-0  16496-3 0  9993","GP_ID":"219214986","MEAN_MOTION":"15.06404808","PERIAPSIS":"545.893","NORAD_CAT_ID":"48397","ELEMENT_SET_NO":"999","REF_FRAME":"TEME","OBJECT_TYPE":"PAYLOAD","CLASSIFICATION_TYPE":"U","EPOCH":"2022-11-30T15:33:34.993152","MEAN_MOTION_DDOT":"0.0000000000000","SEMIMAJOR_AXIS":"6925.334","APOAPSIS":"548.505","MEAN_ANOMALY":"298.1779","RA_OF_ASC_NODE":"306.3753","CENTER_NAME":"EARTH","TIME_SYSTEM":"UTC","PERIOD":"95.592","REV_AT_EPOCH":"8840","INCLINATION":"53.0549","COUNTRY_CODE":"US","OBJECT_ID":"2021-038AW","OBJECT_NAME":"STARLINK-2590"},{"ARG_OF_PERICENTER":"56.4199","MEAN_MOTION_DOT":"0.00000327","BSTAR":"0.00004084000000","TLE_LINE2":"2 48398  53.0561 306.3908 0001716  56.4199 303.6953 15.06394550 88409","MEAN_ELEMENT_THEORY":"SGP4","EPHEMERIS_TYPE":"0","DECAY_DATE":null,"LAUNCH_DATE":"2021-05-04","ECCENTRICITY":"0.00017160","SITE":"AFETR","MEAN_MOTION":"15.06394550","PERIAPSIS":"546.042","RCS_SIZE":"LARGE","FILE":"3676429","GP_ID":"219215225","TLE_LINE1":"1 48398U 21038AX  22334.64464273  .00000327  00000-0  40840-4 0  9998","EPOCH":"2022-11-30T15:28:17.131872","SEMIMAJOR_AXIS":"6925.365","MEAN_MOTION_DDOT":"0.0000000000000","APOAPSIS":"548.419","NORAD_CAT_ID":"48398","ELEMENT_SET_NO":"999","REF_FRAME":"TEME","OBJECT_TYPE":"PAYLOAD","CLASSIFICATION_TYPE":"U","OBJECT_ID":"2021-038AX","COUNTRY_CODE":"US","INCLINATION":"53.0561","OBJECT_NAME":"STARLINK-2588","MEAN_ANOMALY":"303.6953","PERIOD":"95.592","REV_AT_EPOCH":"8840","RA_OF_ASC_NODE":"306.3908","TIME_SYSTEM":"UTC","CENTER_NAME":"EARTH"}];
